{
  "type": "FeatureCollection",
  "features": [
    {
      "type": "Feature",
      "properties": {
        "id": "corbett",
        "name": "Jim Corbett National Park",
        "state": "Uttarakhand",
        "area": "1318 km²",
        "type": "boundary",
        "division": "Corbett Tiger Reserve",
        "range": "Dhikala, Bijrani, Jhirna, Dhela, Sonanadi",
        "description": "India's oldest national park in the Himalayan foothills"
      },
      "geometry": {
        "type": "Polygon",
        "coordinates": [[
          [79.05, 29.25], [79.12, 29.26], [79.20, 29.28], [79.28, 29.30],
          [79.35, 29.32], [79.42, 29.35], [79.50, 29.38], [79.50, 29.42],
          [79.48, 29.46], [79.45, 29.50], [79.42, 29.53], [79.38, 29.55],
          [79.32, 29.55], [79.25, 29.54], [79.18, 29.52], [79.10, 29.50],
          [79.05, 29.48], [79.00, 29.45], [78.97, 29.42], [78.97, 29.38],
          [79.00, 29.33], [79.03, 29.29], [79.05, 29.25]
        ]]
      }
    },
    {
      "type": "Feature",
      "properties": {
        "id": "similipal",
        "name": "Similipal National Park",
        "state": "Odisha",
        "area": "2750 km²",
        "type": "boundary",
        "division": "Similipal Tiger Reserve",
        "range": "Baripada, Khadgarh, Pithabata, Nawana",
        "description": "Vast dry deciduous wilderness in eastern India"
      },
      "geometry": {
        "type": "Polygon",
        "coordinates": [[
          [86.10, 22.00], [86.18, 22.00], [86.28, 22.02], [86.38, 22.05],
          [86.48, 22.08], [86.58, 22.12], [86.68, 22.15], [86.70, 22.20],
          [86.70, 22.25], [86.68, 22.30], [86.65, 22.35], [86.60, 22.40],
          [86.55, 22.44], [86.48, 22.45], [86.40, 22.45], [86.32, 22.43],
          [86.24, 22.40], [86.16, 22.36], [86.10, 22.32], [86.06, 22.26],
          [86.05, 22.20], [86.07, 22.13], [86.10, 22.07], [86.10, 22.00]
        ]]
      }
    },
    {
      "type": "Feature",
      "properties": {
        "id": "jyotikuchi",
        "name": "Jyotikuchi Dhopolia Hill",
        "state": "Assam",
        "area": "85 km²",
        "type": "boundary",
        "division": "Kamrup Forest Division",
        "range": "Jyotikuchi Range",
        "description": "Urban-forest interface hill near Guwahati city"
      },
      "geometry": {
        "type": "Polygon",
        "coordinates": [[
          [91.65, 26.05], [91.70, 26.05], [91.76, 26.07], [91.82, 26.09],
          [91.87, 26.12], [91.88, 26.16], [91.88, 26.20], [91.86, 26.24],
          [91.83, 26.27], [91.78, 26.28], [91.72, 26.28], [91.67, 26.26],
          [91.65, 26.23], [91.64, 26.18], [91.64, 26.13], [91.65, 26.08],
          [91.65, 26.05]
        ]]
      }
    },
    {
      "type": "Feature",
      "properties": {
        "id": "laisong",
        "name": "Laisong Reserved Forest",
        "state": "Assam",
        "area": "450 km²",
        "type": "boundary",
        "division": "Dima Hasao Forest Division",
        "range": "Haflong Range, Laisong Range",
        "description": "Remote tropical deciduous forest in the Dima Hasao hills"
      },
      "geometry": {
        "type": "Polygon",
        "coordinates": [[
          [92.80, 25.70], [92.88, 25.70], [92.96, 25.72], [93.03, 25.75],
          [93.08, 25.78], [93.10, 25.82], [93.10, 25.87], [93.08, 25.92],
          [93.05, 25.96], [93.00, 26.00], [92.93, 26.00], [92.86, 25.98],
          [92.80, 25.95], [92.78, 25.90], [92.78, 25.84], [92.79, 25.77],
          [92.80, 25.70]
        ]]
      }
    }
  ]
}
